[{"OBJECT_NAME":"STARLINK-36334","OBJECT_ID":"2026-008AC","EPOCH":"2026-03-09T09:38:53.657088","MEAN_MOTION":15.27631199,"ECCENTRICITY":0.00046191,"INCLINATION":43.0015,"RA_OF_ASC_NODE":207.2306,"ARG_OF_PERICENTER":300.6201,"MEAN_ANOMALY":59.4195,"EPHEMERIS_TYPE":0,"CLASSIFICATION_TYPE":"U","NORAD_CAT_ID":67471,"ELEMENT_SET_NO":999,"REV_AT_EPOCH":952,"BSTAR":0.0015508272,"MEAN_MOTION_DOT":0.00042737,"MEAN_MOTION_DDOT":0},{"OBJECT_NAME":"ALSAT-3B","OBJECT_ID":"2026-021A","EPOCH":"2026-03-09T21:47:36.363264","MEAN_MOTION":15.23965648,"ECCENTRICITY":0.00137736,"INCLINATION":97.4662,"RA_OF_ASC_NODE":143.2461,"ARG_OF_PERICENTER":131.2824,"MEAN_ANOMALY":228.9602,"EPHEMERIS_TYPE":0,"CLASSIFICATION_TYPE":"U","NORAD_CAT_ID":67646,"ELEMENT_SET_NO":999,"REV_AT_EPOCH":575,"BSTAR":0.00034138739,"MEAN_MOTION_DOT":8.212e-5,"MEAN_MOTION_DDOT":0}]
